CCSDS_OMM_VERS = 2.0
CREATION_DATE  = 
ORIGINATOR     = 

OBJECT_NAME    = SL-14 R/B
OBJECT_ID      = 1986-046B
CENTER_NAME    = EARTH
REF_FRAME      = TEME
TIME_SYSTEM    = UTC
MEAN_ELEMENT_THEORY = SGP/SGP4

EPOCH          = 2025-12-04T00:36:06.541344
MEAN_MOTION    = 14.85470537
ECCENTRICITY   = .0023058
INCLINATION    = 82.4812
RA_OF_ASC_NODE = 170.5443
ARG_OF_PERICENTER = 180.6299
MEAN_ANOMALY   = 179.4893

EPHEMERIS_TYPE = 0
CLASSIFICATION_TYPE = U
NORAD_CAT_ID   = 16792
ELEMENT_SET_NO = 999
REV_AT_EPOCH   = 11220
BSTAR          = .10328E-3
MEAN_MOTION_DOT = .919E-5
MEAN_MOTION_DDOT = 0

CCSDS_OMM_VERS = 2.0
CREATION_DATE  = 
ORIGINATOR     = 

OBJECT_NAME    = SL-14 R/B
OBJECT_ID      = 1986-055B
CENTER_NAME    = EARTH
REF_FRAME      = TEME
TIME_SYSTEM    = UTC
MEAN_ELEMENT_THEORY = SGP/SGP4

EPOCH          = 2025-12-04T04:15:04.903776
MEAN_MOTION    = 14.85518157
ECCENTRICITY   = .001757
INCLINATION    = 82.5213
RA_OF_ASC_NODE = 216.4180
ARG_OF_PERICENTER = 290.2100
MEAN_ANOMALY   = 231.6518

EPHEMERIS_TYPE = 0
CLASSIFICATION_TYPE = U
NORAD_CAT_ID   = 16882
ELEMENT_SET_NO = 999
REV_AT_EPOCH   = 10518
BSTAR          = .10565E-3
MEAN_MOTION_DOT = .938E-5
MEAN_MOTION_DDOT = 0

CCSDS_OMM_VERS = 2.0
CREATION_DATE  = 
ORIGINATOR     = 

OBJECT_NAME    = AJISAI (EGS)
OBJECT_ID      = 1986-061A
CENTER_NAME    = EARTH
REF_FRAME      = TEME
TIME_SYSTEM    = UTC
MEAN_ELEMENT_THEORY = SGP/SGP4

EPOCH          = 2025-12-04T03:39:34.136352
MEAN_MOTION    = 12.44514160
ECCENTRICITY   = .0011266
INCLINATION    = 50.0113
RA_OF_ASC_NODE = 27.1222
ARG_OF_PERICENTER = 44.3934
MEAN_ANOMALY   = 35.2073

EPHEMERIS_TYPE = 0
CLASSIFICATION_TYPE = U
NORAD_CAT_ID   = 16908
ELEMENT_SET_NO = 999
REV_AT_EPOCH   = 45610
BSTAR          = .69721E-4
MEAN_MOTION_DOT = -.88E-6
MEAN_MOTION_DDOT = 0

CCSDS_OMM_VERS = 2.0
CREATION_DATE  = 
ORIGINATOR     = 

OBJECT_NAME    = COSMOS 1812
OBJECT_ID      = 1987-003A
CENTER_NAME    = EARTH
REF_FRAME      = TEME
TIME_SYSTEM    = UTC
MEAN_ELEMENT_THEORY = SGP/SGP4

EPOCH          = 2025-12-03T23:01:27.216192
MEAN_MOTION    = 15.73330723
ECCENTRICITY   = .0007088
INCLINATION    = 82.4869
RA_OF_ASC_NODE = 301.5059
ARG_OF_PERICENTER = 97.5199
MEAN_ANOMALY   = 262.6870

EPHEMERIS_TYPE = 0
CLASSIFICATION_TYPE = U
NORAD_CAT_ID   = 17295
ELEMENT_SET_NO = 999
REV_AT_EPOCH   = 12927
BSTAR          = .98309E-3
MEAN_MOTION_DOT = .137739E-2
MEAN_MOTION_DDOT = 0

CCSDS_OMM_VERS = 2.0
CREATION_DATE  = 
ORIGINATOR     = 

OBJECT_NAME    = SL-14 R/B
OBJECT_ID      = 1987-024B
CENTER_NAME    = EARTH
REF_FRAME      = TEME
TIME_SYSTEM    = UTC
MEAN_ELEMENT_THEORY = SGP/SGP4

EPOCH          = 2025-12-04T02:14:09.523392
MEAN_MOTION    = 14.86010801
ECCENTRICITY   = .0017374
INCLINATION    = 82.5280
RA_OF_ASC_NODE = 182.5769
ARG_OF_PERICENTER = 213.7362
MEAN_ANOMALY   = 146.2750

EPHEMERIS_TYPE = 0
CLASSIFICATION_TYPE = U
NORAD_CAT_ID   = 17567
ELEMENT_SET_NO = 999
REV_AT_EPOCH   = 7393
BSTAR          = .96396E-4
MEAN_MOTION_DOT = .868E-5
MEAN_MOTION_DDOT = 0

CCSDS_OMM_VERS = 2.0
CREATION_DATE  = 
ORIGINATOR     = 

OBJECT_NAME    = COSMOS 1833
OBJECT_ID      = 1987-027A
CENTER_NAME    = EARTH
REF_FRAME      = TEME
TIME_SYSTEM    = UTC
MEAN_ELEMENT_THEORY = SGP/SGP4

EPOCH          = 2025-12-03T22:33:07.914816
MEAN_MOTION    = 14.13018721
ECCENTRICITY   = .0022155
INCLINATION    = 70.9129
RA_OF_ASC_NODE = 167.2768
ARG_OF_PERICENTER = 344.1061
MEAN_ANOMALY   = 15.9362

EPHEMERIS_TYPE = 0
CLASSIFICATION_TYPE = U
NORAD_CAT_ID   = 17589
ELEMENT_SET_NO = 999
REV_AT_EPOCH   = 99678
BSTAR          = .62441E-4
MEAN_MOTION_DOT = .69E-6
MEAN_MOTION_DDOT = 0

CCSDS_OMM_VERS = 2.0
CREATION_DATE  = 
ORIGINATOR     = 

OBJECT_NAME    = SL-16 R/B
OBJECT_ID      = 1987-027B
CENTER_NAME    = EARTH
REF_FRAME      = TEME
TIME_SYSTEM    = UTC
MEAN_ELEMENT_THEORY = SGP/SGP4

EPOCH          = 2025-12-04T02:53:29.572224
MEAN_MOTION    = 14.17152527
ECCENTRICITY   = .000752
INCLINATION    = 71.0022
RA_OF_ASC_NODE = 117.8797
ARG_OF_PERICENTER = 268.8080
MEAN_ANOMALY   = 91.2182

EPHEMERIS_TYPE = 0
CLASSIFICATION_TYPE = U
NORAD_CAT_ID   = 17590
ELEMENT_SET_NO = 999
REV_AT_EPOCH   = 180
BSTAR          = .24969E-4
MEAN_MOTION_DOT = .2E-7
MEAN_MOTION_DDOT = 0

CCSDS_OMM_VERS = 2.0
CREATION_DATE  = 
ORIGINATOR     = 

OBJECT_NAME    = SL-14 R/B
OBJECT_ID      = 1987-038B
CENTER_NAME    = EARTH
REF_FRAME      = TEME
TIME_SYSTEM    = UTC
MEAN_ELEMENT_THEORY = SGP/SGP4

EPOCH          = 2025-12-03T15:14:08.445408
MEAN_MOTION    = 14.85247798
ECCENTRICITY   = .00206324
INCLINATION    = 82.5025
RA_OF_ASC_NODE = 27.2763
ARG_OF_PERICENTER = 120.0711
MEAN_ANOMALY   = 240.2555

EPHEMERIS_TYPE = 0
CLASSIFICATION_TYPE = U
NORAD_CAT_ID   = 17912
ELEMENT_SET_NO = 999
REV_AT_EPOCH   = 6497
BSTAR          = .80965862E-4
MEAN_MOTION_DOT = .721E-5
MEAN_MOTION_DDOT = 0

CCSDS_OMM_VERS = 2.0
CREATION_DATE  = 
ORIGINATOR     = 

OBJECT_NAME    = COSMOS 1844
OBJECT_ID      = 1987-041A
CENTER_NAME    = EARTH
REF_FRAME      = TEME
TIME_SYSTEM    = UTC
MEAN_ELEMENT_THEORY = SGP/SGP4

EPOCH          = 2025-12-03T22:25:52.706784
MEAN_MOTION    = 14.14527766
ECCENTRICITY   = .00303765
INCLINATION    = 70.8988
RA_OF_ASC_NODE = 236.1422
ARG_OF_PERICENTER = 171.1433
MEAN_ANOMALY   = 189.0231

EPHEMERIS_TYPE = 0
CLASSIFICATION_TYPE = U
NORAD_CAT_ID   = 17973
ELEMENT_SET_NO = 999
REV_AT_EPOCH   = 99004
BSTAR          = -.27715948E-4
MEAN_MOTION_DOT = -.102E-5
MEAN_MOTION_DDOT = 0

CCSDS_OMM_VERS = 2.0
CREATION_DATE  = 
ORIGINATOR     = 

OBJECT_NAME    = SL-14 R/B
OBJECT_ID      = 1987-055B
CENTER_NAME    = EARTH
REF_FRAME      = TEME
TIME_SYSTEM    = UTC
MEAN_ELEMENT_THEORY = SGP/SGP4

EPOCH          = 2025-12-03T18:18:44.753472
MEAN_MOTION    = 14.85505742
ECCENTRICITY   = .00199893
INCLINATION    = 82.5000
RA_OF_ASC_NODE = 79.4476
ARG_OF_PERICENTER = 334.5129
MEAN_ANOMALY   = 25.5099

EPHEMERIS_TYPE = 0
CLASSIFICATION_TYPE = U
NORAD_CAT_ID   = 18153
ELEMENT_SET_NO = 999
REV_AT_EPOCH   = 5569
BSTAR          = .92471187E-4
MEAN_MOTION_DOT = .825E-5
MEAN_MOTION_DDOT = 0

CCSDS_OMM_VERS = 2.0
CREATION_DATE  = 
ORIGINATOR     = 

OBJECT_NAME    = COSMOS 1867
OBJECT_ID      = 1987-060A
CENTER_NAME    = EARTH
REF_FRAME      = TEME
TIME_SYSTEM    = UTC
MEAN_ELEMENT_THEORY = SGP/SGP4

EPOCH          = 2025-12-04T00:14:05.608896
MEAN_MOTION    = 14.31483928
ECCENTRICITY   = .0013626
INCLINATION    = 65.0097
RA_OF_ASC_NODE = 214.6499
ARG_OF_PERICENTER = 270.2227
MEAN_ANOMALY   = 89.7296

EPHEMERIS_TYPE = 0
CLASSIFICATION_TYPE = U
NORAD_CAT_ID   = 18187
ELEMENT_SET_NO = 999
REV_AT_EPOCH   = 624
BSTAR          = .5471E-4
MEAN_MOTION_DOT = .45E-6
MEAN_MOTION_DDOT = 0

CCSDS_OMM_VERS = 2.0
CREATION_DATE  = 
ORIGINATOR     = 

OBJECT_NAME    = SL-14 R/B
OBJECT_ID      = 1988-001B
CENTER_NAME    = EARTH
REF_FRAME      = TEME
TIME_SYSTEM    = UTC
MEAN_ELEMENT_THEORY = SGP/SGP4

EPOCH          = 2025-12-03T21:16:51.769920
MEAN_MOTION    = 14.85409239
ECCENTRICITY   = .0017671
INCLINATION    = 82.5125
RA_OF_ASC_NODE = 285.4744
ARG_OF_PERICENTER = 190.2666
MEAN_ANOMALY   = 169.8192

EPHEMERIS_TYPE = 0
CLASSIFICATION_TYPE = U
NORAD_CAT_ID   = 18749
ELEMENT_SET_NO = 999
REV_AT_EPOCH   = 2780
BSTAR          = .11059591E-3
MEAN_MOTION_DOT = .979E-5
MEAN_MOTION_DDOT = 0

