SL-14 R/B               
1 16792U 86046B   25338.02507571  .00000919  00000+0  10328-3 0  9992
2 16792  82.4812 170.5443 0023058 180.6299 179.4893 14.85470537112200
SL-14 R/B               
1 16882U 86055B   25338.17714009  .00000938  00000+0  10565-3 0  9998
2 16882  82.5213 216.4180 0017570 290.2100 231.6518 14.85518157105180
AJISAI (EGS)            
1 16908U 86061A   25338.15247843 -.00000088  00000+0  69721-4 0  9995
2 16908  50.0113  27.1222 0011266  44.3934  35.2073 12.44514160456109
COSMOS 1812             
1 17295U 87003A   25337.95934278  .00137739  00000+0  98309-3 0  9990
2 17295  82.4869 301.5059 0007088  97.5199 262.6870 15.73330723129275
SL-14 R/B               
1 17567U 87024B   25338.09316578  .00000868  00000+0  96396-4 0  9995
2 17567  82.5280 182.5769 0017374 213.7362 146.2750 14.86010801 73933
COSMOS 1833             
1 17589U 87027A   25337.93967494  .00000069  00000+0  62441-4 0  9990
2 17589  70.9129 167.2768 0022155 344.1061  15.9362 14.13018721996784
SL-16 R/B               
1 17590U 87027B   25338.12048116  .00000002  00000+0  24969-4 0  9995
2 17590  71.0022 117.8797 0007520 268.8080  91.2182 14.17152527  1809
SL-14 R/B               
1 17912U 87038B   25337.63481997  .00000721  00000+0  80966-4 0  9995
2 17912  82.5025  27.2763 0020632 120.0711 240.2555 14.85247798 64970
COSMOS 1844             
1 17973U 87041A   25337.93463781 -.00000102  00000+0 -27716-4 0  9999
2 17973  70.8988 236.1422 0030376 171.1433 189.0231 14.14527766990047
SL-14 R/B               
1 18153U 87055B   25337.76301798  .00000825  00000+0  92471-4 0  9995
2 18153  82.5000  79.4476 0019989 334.5129  25.5099 14.85505742 55691
COSMOS 1867             
1 18187U 87060A   25338.00978714  .00000045  00000+0  54710-4 0  9992
2 18187  65.0097 214.6499 0013626 270.2227  89.7296 14.31483928  6245
SL-14 R/B               
1 18749U 88001B   25337.88671030  .00000979  00000+0  11060-3 0  9994
2 18749  82.5125 285.4744 0017671 190.2666 169.8192 14.85409239 27808
